[{"OBJECT_NAME":"STARLINK-31143","OBJECT_ID":"2024-011F","EPOCH":"2026-03-09T05:52:42.210336","MEAN_MOTION":15.30186255,"ECCENTRICITY":7.328e-5,"INCLINATION":53.1621,"RA_OF_ASC_NODE":15.6419,"ARG_OF_PERICENTER":82.7185,"MEAN_ANOMALY":277.3899,"EPHEMERIS_TYPE":0,"CLASSIFICATION_TYPE":"U","NORAD_CAT_ID":58770,"ELEMENT_SET_NO":999,"REV_AT_EPOCH":12020,"BSTAR":1.0791791e-5,"MEAN_MOTION_DOT":-3.9e-7,"MEAN_MOTION_DDOT":0},{"OBJECT_NAME":"CZ-4 DEB","OBJECT_ID":"2006-046L","EPOCH":"2026-03-09T05:26:57.251328","MEAN_MOTION":15.20206122,"ECCENTRICITY":0.00567956,"INCLINATION":97.8211,"RA_OF_ASC_NODE":163.0679,"ARG_OF_PERICENTER":229.3561,"MEAN_ANOMALY":130.2727,"EPHEMERIS_TYPE":0,"CLASSIFICATION_TYPE":"U","NORAD_CAT_ID":35378,"ELEMENT_SET_NO":999,"REV_AT_EPOCH":2541,"BSTAR":0.0021311714,"MEAN_MOTION_DOT":0.00048409,"MEAN_MOTION_DDOT":0}]
